start=new Date('2022-10-22T00:00:00.000Z').valueOf();
sats=[{"EPOCH":"2022-10-21T14:28:48.091296","CLASSIFICATION_TYPE":"U","MEAN_MOTION_DDOT":"0.0000000000000","FILE":"3628413","GP_ID":"215842960","RA_OF_ASC_NODE":"46.1269","OBJECT_TYPE":"PAYLOAD","REF_FRAME":"TEME","RCS_SIZE":"LARGE","EPHEMERIS_TYPE":"0","APOAPSIS":"548.196","DECAY_DATE":null,"PERIOD":"95.592","MEAN_ELEMENT_THEORY":"SGP4","BSTAR":"0.00000101650000","MEAN_ANOMALY":"288.4344","TLE_LINE1":"1 47822U 21018AM  22294.60333439 -.00000266  00000-0  10165-5 0  9998","OBJECT_NAME":"STARLINK-2407","ARG_OF_PERICENTER":"71.6797","MEAN_MOTION_DOT":"-0.00000266","TIME_SYSTEM":"UTC","PERIAPSIS":"546.256","MEAN_MOTION":"15.06395977","SEMIMAJOR_AXIS":"6925.361","REV_AT_EPOCH":"9030","TLE_LINE2":"2 47822  53.0563  46.1269 0001401  71.6797 288.4344 15.06395977 90305","CENTER_NAME":"EARTH","SITE":"AFETR","ECCENTRICITY":"0.00014010","ELEMENT_SET_NO":"999","NORAD_CAT_ID":"47822","INCLINATION":"53.0563","OBJECT_ID":"2021-018AM","LAUNCH_DATE":"2021-03-11","COUNTRY_CODE":"US"},{"REV_AT_EPOCH":"9043","TLE_LINE2":"2 47823  53.0564  36.3579 0001329  62.2854 297.8270 15.06405847 90435","CENTER_NAME":"EARTH","MEAN_MOTION_DOT":"0.00000902","TIME_SYSTEM":"UTC","MEAN_MOTION":"15.06405847","PERIAPSIS":"546.275","SEMIMAJOR_AXIS":"6925.331","OBJECT_ID":"2021-018AN","LAUNCH_DATE":"2021-03-11","COUNTRY_CODE":"US","SITE":"AFETR","ECCENTRICITY":"0.00013290","NORAD_CAT_ID":"47823","ELEMENT_SET_NO":"999","INCLINATION":"53.0564","GP_ID":"215776901","OBJECT_TYPE":"PAYLOAD","RA_OF_ASC_NODE":"36.3579","REF_FRAME":"TEME","EPOCH":"2022-10-21T13:15:49.561344","CLASSIFICATION_TYPE":"U","MEAN_MOTION_DDOT":"0.0000000000000","FILE":"3627579","BSTAR":"0.00007943200000","MEAN_ANOMALY":"297.8270","TLE_LINE1":"1 47823U 21018AN  22294.55265696  .00000902  00000-0  79432-4 0  9999","ARG_OF_PERICENTER":"62.2854","OBJECT_NAME":"STARLINK-2408","RCS_SIZE":"LARGE","EPHEMERIS_TYPE":"0","DECAY_DATE":null,"APOAPSIS":"548.116","PERIOD":"95.592","MEAN_ELEMENT_THEORY":"SGP4"},{"FILE":"3628413","EPOCH":"2022-10-21T16:12:20.260800","CLASSIFICATION_TYPE":"U","MEAN_MOTION_DDOT":"0.0000000000000","REF_FRAME":"TEME","GP_ID":"215841460","RA_OF_ASC_NODE":"35.8288","OBJECT_TYPE":"PAYLOAD","PERIOD":"95.592","MEAN_ELEMENT_THEORY":"SGP4","EPHEMERIS_TYPE":"0","RCS_SIZE":"LARGE","DECAY_DATE":null,"APOAPSIS":"548.231","ARG_OF_PERICENTER":"73.6281","OBJECT_NAME":"STARLINK-2409","BSTAR":"0.00006960000000","TLE_LINE1":"1 47824U 21018AP  22294.67523450  .00000755  00000-0  69600-4 0  9990","MEAN_ANOMALY":"286.4871","TIME_SYSTEM":"UTC","PERIAPSIS":"546.177","SEMIMAJOR_AXIS":"6925.339","MEAN_MOTION":"15.06402998","MEAN_MOTION_DOT":"0.00000755","TLE_LINE2":"2 47824  53.0557  35.8288 0001483  73.6281 286.4871 15.06402998 90446","CENTER_NAME":"EARTH","REV_AT_EPOCH":"9044","INCLINATION":"53.0557","SITE":"AFETR","ECCENTRICITY":"0.00014830","ELEMENT_SET_NO":"999","NORAD_CAT_ID":"47824","OBJECT_ID":"2021-018AP","LAUNCH_DATE":"2021-03-11","COUNTRY_CODE":"US"},{"FILE":"3627579","EPOCH":"2022-10-21T13:27:47.969568","CLASSIFICATION_TYPE":"U","MEAN_MOTION_DDOT":"0.0000000000000","REF_FRAME":"TEME","OBJECT_TYPE":"PAYLOAD","RA_OF_ASC_NODE":"36.3395","GP_ID":"215775909","MEAN_ELEMENT_THEORY":"SGP4","PERIOD":"95.592","APOAPSIS":"548.194","DECAY_DATE":null,"EPHEMERIS_TYPE":"0","RCS_SIZE":"LARGE","ARG_OF_PERICENTER":"71.2978","OBJECT_NAME":"STARLINK-2410","MEAN_ANOMALY":"288.8168","TLE_LINE1":"1 47825U 21018AQ  22294.56097187  .00001409  00000-0  11343-3 0  9999","BSTAR":"0.00011343000000","SEMIMAJOR_AXIS":"6925.326","PERIAPSIS":"546.188","MEAN_MOTION":"15.06407409","TIME_SYSTEM":"UTC","MEAN_MOTION_DOT":"0.00001409","CENTER_NAME":"EARTH","TLE_LINE2":"2 47825  53.0543  36.3395 0001448  71.2978 288.8168 15.06407409 90431","REV_AT_EPOCH":"9043","INCLINATION":"53.0543","ECCENTRICITY":"0.00014480","SITE":"AFETR","NORAD_CAT_ID":"47825","ELEMENT_SET_NO":"999","LAUNCH_DATE":"2021-03-11","COUNTRY_CODE":"US","OBJECT_ID":"2021-018AQ"},{"REF_FRAME":"TEME","GP_ID":"215819585","RA_OF_ASC_NODE":"36.3515","OBJECT_TYPE":"PAYLOAD","FILE":"3628261","MEAN_MOTION_DDOT":"0.0000000000000","EPOCH":"2022-10-21T13:22:31.971072","CLASSIFICATION_TYPE":"U","OBJECT_NAME":"STARLINK-2411","ARG_OF_PERICENTER":"64.2107","BSTAR":"0.00101320000000","TLE_LINE1":"1 47826U 21018AR  22294.55731448  .00014815  00000-0  10132-2 0  9993","MEAN_ANOMALY":"295.9102","PERIOD":"95.596","MEAN_ELEMENT_THEORY":"SGP4","EPHEMERIS_TYPE":"0","RCS_SIZE":"LARGE","APOAPSIS":"548.898","DECAY_DATE":null,"TLE_LINE2":"2 47826  53.0563  36.3515 0002137  64.2107 295.9102 15.06333400 90098","CENTER_NAME":"EARTH","REV_AT_EPOCH":"9009","TIME_SYSTEM":"UTC","MEAN_MOTION":"15.06333400","PERIAPSIS":"545.938","SEMIMAJOR_AXIS":"6925.553","MEAN_MOTION_DOT":"0.00014815","OBJECT_ID":"2021-018AR","COUNTRY_CODE":"US","LAUNCH_DATE":"2021-03-11","INCLINATION":"53.0563","ELEMENT_SET_NO":"999","NORAD_CAT_ID":"47826","SITE":"AFETR","ECCENTRICITY":"0.00021370"},{"OBJECT_ID":"2021-018AS","LAUNCH_DATE":"2021-03-11","COUNTRY_CODE":"US","SITE":"AFETR","ECCENTRICITY":"0.00014040","NORAD_CAT_ID":"47827","ELEMENT_SET_NO":"999","INCLINATION":"53.0557","REV_AT_EPOCH":"9062","TLE_LINE2":"2 47827  53.0557  26.6540 0001404  74.3713 285.7431 15.06395506 90629","CENTER_NAME":"EARTH","MEAN_MOTION_DOT":"0.00000022","TIME_SYSTEM":"UTC","MEAN_MOTION":"15.06395506","PERIAPSIS":"546.255","SEMIMAJOR_AXIS":"6925.362","BSTAR":"0.00002039300000","MEAN_ANOMALY":"285.7431","TLE_LINE1":"1 47827U 21018AS  22294.53981318  .00000022  00000-0  20393-4 0  9992","OBJECT_NAME":"STARLINK-2413","ARG_OF_PERICENTER":"74.3713","EPHEMERIS_TYPE":"0","RCS_SIZE":"LARGE","DECAY_DATE":null,"APOAPSIS":"548.200","PERIOD":"95.592","MEAN_ELEMENT_THEORY":"SGP4","GP_ID":"215776402","OBJECT_TYPE":"PAYLOAD","RA_OF_ASC_NODE":"26.6540","REF_FRAME":"TEME","CLASSIFICATION_TYPE":"U","EPOCH":"2022-10-21T12:57:19.858752","MEAN_MOTION_DDOT":"0.0000000000000","FILE":"3627579"},{"BSTAR":"0.00018854000000","MEAN_ANOMALY":"293.9735","TLE_LINE1":"1 47828U 21018AT  22294.60797065  .00002528  00000-0  18854-3 0  9996","OBJECT_NAME":"STARLINK-2415","ARG_OF_PERICENTER":"66.1414","EPHEMERIS_TYPE":"0","RCS_SIZE":"LARGE","DECAY_DATE":null,"APOAPSIS":"548.277","PERIOD":"95.592","MEAN_ELEMENT_THEORY":"SGP4","GP_ID":"215841960","RA_OF_ASC_NODE":"46.1217","OBJECT_TYPE":"PAYLOAD","REF_FRAME":"TEME","EPOCH":"2022-10-21T14:35:28.664160","CLASSIFICATION_TYPE":"U","MEAN_MOTION_DDOT":"0.0000000000000","FILE":"3628413","OBJECT_ID":"2021-018AT","LAUNCH_DATE":"2021-03-11","COUNTRY_CODE":"US","ECCENTRICITY":"0.00015300","SITE":"AFETR","NORAD_CAT_ID":"47828","ELEMENT_SET_NO":"999","INCLINATION":"53.0560","REV_AT_EPOCH":"9030","TLE_LINE2":"2 47828  53.0560  46.1217 0001530  66.1414 293.9735 15.06398831 90306","CENTER_NAME":"EARTH","MEAN_MOTION_DOT":"0.00002528","TIME_SYSTEM":"UTC","PERIAPSIS":"546.158","MEAN_MOTION":"15.06398831","SEMIMAJOR_AXIS":"6925.352"},{"CENTER_NAME":"EARTH","TLE_LINE2":"2 47829  53.0550  45.7375 0001475  77.2803 282.8351 15.06397146 90308","REV_AT_EPOCH":"9030","SEMIMAJOR_AXIS":"6925.357","PERIAPSIS":"546.201","MEAN_MOTION":"15.06397146","TIME_SYSTEM":"UTC","MEAN_MOTION_DOT":"-0.00000309","LAUNCH_DATE":"2021-03-11","COUNTRY_CODE":"US","OBJECT_ID":"2021-018AU","INCLINATION":"53.0550","SITE":"AFETR","ECCENTRICITY":"0.00014750","NORAD_CAT_ID":"47829","ELEMENT_SET_NO":"999","REF_FRAME":"TEME","OBJECT_TYPE":"PAYLOAD","RA_OF_ASC_NODE":"45.7375","GP_ID":"215842209","FILE":"3628413","EPOCH":"2022-10-21T16:37:33.391776","CLASSIFICATION_TYPE":"U","MEAN_MOTION_DDOT":"0.0000000000000","OBJECT_NAME":"STARLINK-2416","ARG_OF_PERICENTER":"77.2803","MEAN_ANOMALY":"282.8351","TLE_LINE1":"1 47829U 21018AU  22294.69274759 -.00000309  00000-0 -18466-5 0  9994","BSTAR":"-0.00000184660000","MEAN_ELEMENT_THEORY":"SGP4","PERIOD":"95.592","DECAY_DATE":null,"APOAPSIS":"548.244","RCS_SIZE":"MEDIUM","EPHEMERIS_TYPE":"0"},{"REF_FRAME":"TEME","RA_OF_ASC_NODE":"45.4620","OBJECT_TYPE":"PAYLOAD","GP_ID":"215842961","FILE":"3628413","MEAN_MOTION_DDOT":"0.0000000000000","EPOCH":"2022-10-21T18:07:47.017920","CLASSIFICATION_TYPE":"U","ARG_OF_PERICENTER":"62.7138","OBJECT_NAME":"STARLINK-2419","MEAN_ANOMALY":"297.4002","TLE_LINE1":"1 47830U 21018AV  22294.75540530  .00002032  00000-0  15523-3 0  9998","BSTAR":"0.00015523000000","MEAN_ELEMENT_THEORY":"SGP4","PERIOD":"95.592","APOAPSIS":"548.231","DECAY_DATE":null,"RCS_SIZE":"LARGE","EPHEMERIS_TYPE":"0","CENTER_NAME":"EARTH","TLE_LINE2":"2 47830  53.0553  45.4620 0001483  62.7138 297.4002 15.06403117 90314","REV_AT_EPOCH":"9031","PERIAPSIS":"546.177","SEMIMAJOR_AXIS":"6925.339","MEAN_MOTION":"15.06403117","TIME_SYSTEM":"UTC","MEAN_MOTION_DOT":"0.00002032","COUNTRY_CODE":"US","LAUNCH_DATE":"2021-03-11","OBJECT_ID":"2021-018AV","INCLINATION":"53.0553","NORAD_CAT_ID":"47830","ELEMENT_SET_NO":"999","SITE":"AFETR","ECCENTRICITY":"0.00014830"},{"RCS_SIZE":"LARGE","EPHEMERIS_TYPE":"0","DECAY_DATE":null,"APOAPSIS":"548.192","PERIOD":"95.593","MEAN_ELEMENT_THEORY":"SGP4","BSTAR":"0.00005185900000","MEAN_ANOMALY":"301.1991","TLE_LINE1":"1 47831U 21018AW  22294.42414073  .00000491  00000-0  51859-4 0  9995","ARG_OF_PERICENTER":"58.9133","OBJECT_NAME":"STARLINK-2420","CLASSIFICATION_TYPE":"U","EPOCH":"2022-10-21T10:10:45.759072","MEAN_MOTION_DDOT":"0.0000000000000","FILE":"3627877","GP_ID":"215809895","RA_OF_ASC_NODE":"21.9454","OBJECT_TYPE":"PAYLOAD","REF_FRAME":"TEME","SITE":"AFETR","ECCENTRICITY":"0.00013840","ELEMENT_SET_NO":"999","NORAD_CAT_ID":"47831","INCLINATION":"53.0559","OBJECT_ID":"2021-018AW","LAUNCH_DATE":"2021-03-11","COUNTRY_CODE":"US","MEAN_MOTION_DOT":"0.00000491","TIME_SYSTEM":"UTC","PERIAPSIS":"546.275","MEAN_MOTION":"15.06393488","SEMIMAJOR_AXIS":"6925.369","REV_AT_EPOCH":"9028","TLE_LINE2":"2 47831  53.0559  21.9454 0001384  58.9133 301.1991 15.06393488 90282","CENTER_NAME":"EARTH"}];
